start=new Date('2023-05-22T00:00:00.000Z').valueOf();
sats=[{"MEAN_MOTION":"15.08844186","TLE_LINE1":"1 53920U 22119AL  23141.51761034  .00000748  00000-0  65076-4 0  9999","MEAN_ANOMALY":"275.9532","MEAN_ELEMENT_THEORY":"SGP4","REF_FRAME":"TEME","REV_AT_EPOCH":"3736","ECCENTRICITY":"0.00010740","RA_OF_ASC_NODE":"227.1069","SITE":"AFETR","PERIAPSIS":"538.990","INCLINATION":"53.2155","GP_ID":"232284059","NORAD_CAT_ID":"53920","ARG_OF_PERICENTER":"84.1583","TIME_SYSTEM":"UTC","MEAN_MOTION_DOT":"0.00000748","FILE":"3914061","DECAY_DATE":null,"RCS_SIZE":"LARGE","EPOCH":"2023-05-21T12:25:21.533376","OBJECT_NAME":"STARLINK-5025","LAUNCH_DATE":"2022-09-24","CLASSIFICATION_TYPE":"U","PERIOD":"95.437","APOAPSIS":"540.476","MEAN_MOTION_DDOT":"0.0000000000000","OBJECT_TYPE":"PAYLOAD","COUNTRY_CODE":"US","TLE_LINE2":"2 53920  53.2155 227.1069 0001074  84.1583 275.9532 15.08844186 37367","BSTAR":"0.00006507600000","EPHEMERIS_TYPE":"0","SEMIMAJOR_AXIS":"6917.868","OBJECT_ID":"2022-119AL","ELEMENT_SET_NO":"999","CENTER_NAME":"EARTH"},{"TIME_SYSTEM":"UTC","ARG_OF_PERICENTER":"113.3712","NORAD_CAT_ID":"53922","GP_ID":"232284309","DECAY_DATE":null,"FILE":"3914061","MEAN_MOTION_DOT":"0.00009559","REV_AT_EPOCH":"3736","REF_FRAME":"TEME","MEAN_ANOMALY":"246.7367","MEAN_ELEMENT_THEORY":"SGP4","MEAN_MOTION":"15.08872412","TLE_LINE1":"1 53922U 22119AN  23141.51392722  .00009559  00000-0  61730-3 0  9996","PERIAPSIS":"539.077","INCLINATION":"53.2155","RA_OF_ASC_NODE":"227.0833","SITE":"AFETR","ECCENTRICITY":"0.00008230","BSTAR":"0.00061730000000","COUNTRY_CODE":"US","TLE_LINE2":"2 53922  53.2155 227.0833 0000823 113.3712 246.7367 15.08872412 37362","CENTER_NAME":"EARTH","ELEMENT_SET_NO":"999","SEMIMAJOR_AXIS":"6917.781","OBJECT_ID":"2022-119AN","EPHEMERIS_TYPE":"0","LAUNCH_DATE":"2022-09-24","OBJECT_NAME":"STARLINK-5002","RCS_SIZE":"LARGE","EPOCH":"2023-05-21T12:20:03.311808","MEAN_MOTION_DDOT":"0.0000000000000","APOAPSIS":"540.216","OBJECT_TYPE":"PAYLOAD","CLASSIFICATION_TYPE":"U","PERIOD":"95.436"},{"MEAN_MOTION_DOT":"-0.00000758","FILE":"3914061","DECAY_DATE":null,"GP_ID":"232284560","NORAD_CAT_ID":"53923","ARG_OF_PERICENTER":"84.9838","TIME_SYSTEM":"UTC","ECCENTRICITY":"0.00011120","SITE":"AFETR","RA_OF_ASC_NODE":"227.1296","INCLINATION":"53.2162","PERIAPSIS":"538.975","TLE_LINE1":"1 53923U 22119AP  23141.52129650 -.00000758  00000-0 -29552-4 0  9997","MEAN_MOTION":"15.08840310","MEAN_ELEMENT_THEORY":"SGP4","MEAN_ANOMALY":"275.1281","REF_FRAME":"TEME","REV_AT_EPOCH":"3736","EPHEMERIS_TYPE":"0","OBJECT_ID":"2022-119AP","SEMIMAJOR_AXIS":"6917.879","ELEMENT_SET_NO":"999","CENTER_NAME":"EARTH","COUNTRY_CODE":"US","TLE_LINE2":"2 53923  53.2162 227.1296 0001112  84.9838 275.1281 15.08840310 37362","BSTAR":"-0.00002955200000","PERIOD":"95.438","CLASSIFICATION_TYPE":"U","OBJECT_TYPE":"PAYLOAD","APOAPSIS":"540.514","MEAN_MOTION_DDOT":"0.0000000000000","EPOCH":"2023-05-21T12:30:40.017600","RCS_SIZE":"LARGE","OBJECT_NAME":"STARLINK-5004","LAUNCH_DATE":"2022-09-24"},{"SITE":"AFETR","RA_OF_ASC_NODE":"222.1730","ECCENTRICITY":"0.00013300","INCLINATION":"53.2166","PERIAPSIS":"538.812","MEAN_ANOMALY":"247.5882","MEAN_ELEMENT_THEORY":"SGP4","TLE_LINE1":"1 53924U 22119AQ  23141.52728000 -.00000384  00000-0 -60626-5 0  9995","MEAN_MOTION":"15.08844319","REV_AT_EPOCH":"3743","REF_FRAME":"TEME","MEAN_MOTION_DOT":"-0.00000384","DECAY_DATE":null,"FILE":"3914061","NORAD_CAT_ID":"53924","GP_ID":"232285311","ARG_OF_PERICENTER":"112.5251","TIME_SYSTEM":"UTC","OBJECT_TYPE":"PAYLOAD","APOAPSIS":"540.652","MEAN_MOTION_DDOT":"0.0000000000000","PERIOD":"95.437","CLASSIFICATION_TYPE":"U","OBJECT_NAME":"STARLINK-5001","EPOCH":"2023-05-21T12:39:16.992000","RCS_SIZE":"LARGE","LAUNCH_DATE":"2022-09-24","OBJECT_ID":"2022-119AQ","SEMIMAJOR_AXIS":"6917.867","EPHEMERIS_TYPE":"0","CENTER_NAME":"EARTH","ELEMENT_SET_NO":"999","BSTAR":"-0.00000606260000","TLE_LINE2":"2 53924  53.2166 222.1730 0001330 112.5251 247.5882 15.08844319 37435","COUNTRY_CODE":"US"},{"CENTER_NAME":"EARTH","ELEMENT_SET_NO":"999","SEMIMAJOR_AXIS":"6917.850","OBJECT_ID":"2022-119AR","EPHEMERIS_TYPE":"0","BSTAR":"-0.00006706600000","COUNTRY_CODE":"US","TLE_LINE2":"2 53925  53.2174 227.0006 0001192  80.0234 280.0892 15.08849794 36941","APOAPSIS":"540.540","MEAN_MOTION_DDOT":"0.0000000000000","OBJECT_TYPE":"PAYLOAD","CLASSIFICATION_TYPE":"U","PERIOD":"95.437","LAUNCH_DATE":"2022-09-24","OBJECT_NAME":"STARLINK-5011","RCS_SIZE":"LARGE","EPOCH":"2023-05-21T11:58:50.220768","DECAY_DATE":null,"FILE":"3913836","MEAN_MOTION_DOT":"-0.00001355","ARG_OF_PERICENTER":"80.0234","TIME_SYSTEM":"UTC","NORAD_CAT_ID":"53925","GP_ID":"232255716","PERIAPSIS":"538.891","INCLINATION":"53.2174","RA_OF_ASC_NODE":"227.0006","SITE":"AFETR","ECCENTRICITY":"0.00011920","REV_AT_EPOCH":"3694","REF_FRAME":"TEME","MEAN_ANOMALY":"280.0892","MEAN_ELEMENT_THEORY":"SGP4","MEAN_MOTION":"15.08849794","TLE_LINE1":"1 53925U 22119AR  23141.49919237 -.00001355  00000-0 -67066-4 0  9999"},{"OBJECT_TYPE":"PAYLOAD","APOAPSIS":"540.421","MEAN_MOTION_DDOT":"0.0000000000000","PERIOD":"95.438","CLASSIFICATION_TYPE":"U","OBJECT_NAME":"STARLINK-5014","EPOCH":"2023-05-21T21:55:41.174400","RCS_SIZE":"LARGE","LAUNCH_DATE":"2022-09-24","OBJECT_ID":"2022-119AS","SEMIMAJOR_AXIS":"6917.886","EPHEMERIS_TYPE":"0","CENTER_NAME":"EARTH","ELEMENT_SET_NO":"999","BSTAR":"0.00000635380000","COUNTRY_CODE":"US","TLE_LINE2":"2 53926  53.2156 220.3256 0000968  94.4838 265.6265 15.08838148 37501","SITE":"AFETR","RA_OF_ASC_NODE":"220.3256","ECCENTRICITY":"0.00009680","INCLINATION":"53.2156","PERIAPSIS":"539.081","MEAN_ANOMALY":"265.6265","MEAN_ELEMENT_THEORY":"SGP4","TLE_LINE1":"1 53926U 22119AS  23141.91367100 -.00000187  00000-0  63538-5 0  9995","MEAN_MOTION":"15.08838148","REV_AT_EPOCH":"3750","REF_FRAME":"TEME","MEAN_MOTION_DOT":"-0.00000187","DECAY_DATE":null,"FILE":"3914061","NORAD_CAT_ID":"53926","GP_ID":"232283809","ARG_OF_PERICENTER":"94.4838","TIME_SYSTEM":"UTC"},{"ECCENTRICITY":"0.00013060","RA_OF_ASC_NODE":"221.9393","SITE":"AFETR","PERIAPSIS":"538.828","INCLINATION":"53.2163","MEAN_MOTION":"15.08844633","TLE_LINE1":"1 53927U 22119AT  23141.60089258  .00000474  00000-0  47869-4 0  9993","MEAN_ELEMENT_THEORY":"SGP4","MEAN_ANOMALY":"270.5419","REF_FRAME":"TEME","REV_AT_EPOCH":"3702","MEAN_MOTION_DOT":"0.00000474","FILE":"3913798","DECAY_DATE":null,"GP_ID":"232255085","NORAD_CAT_ID":"53927","ARG_OF_PERICENTER":"89.5722","TIME_SYSTEM":"UTC","CLASSIFICATION_TYPE":"U","PERIOD":"95.437","APOAPSIS":"540.635","MEAN_MOTION_DDOT":"0.0000000000000","OBJECT_TYPE":"PAYLOAD","RCS_SIZE":"LARGE","EPOCH":"2023-05-21T14:25:17.118912","OBJECT_NAME":"STARLINK-5008","LAUNCH_DATE":"2022-09-24","EPHEMERIS_TYPE":"0","SEMIMAJOR_AXIS":"6917.866","OBJECT_ID":"2022-119AT","ELEMENT_SET_NO":"999","CENTER_NAME":"EARTH","COUNTRY_CODE":"US","TLE_LINE2":"2 53927  53.2163 221.9393 0001306  89.5722 270.5419 15.08844633 37022","BSTAR":"0.00004786900000"},{"MEAN_MOTION_DOT":"-0.00000224","FILE":"3914061","DECAY_DATE":null,"GP_ID":"232284811","NORAD_CAT_ID":"53928","ARG_OF_PERICENTER":"78.0778","TIME_SYSTEM":"UTC","ECCENTRICITY":"0.00012740","SITE":"AFETR","RA_OF_ASC_NODE":"215.3921","INCLINATION":"53.2169","PERIAPSIS":"538.877","TLE_LINE1":"1 53928U 22119AU  23141.92335036 -.00000224  00000-0  40366-5 0  9997","MEAN_MOTION":"15.08835905","MEAN_ANOMALY":"282.0356","MEAN_ELEMENT_THEORY":"SGP4","REF_FRAME":"TEME","REV_AT_EPOCH":"3756","EPHEMERIS_TYPE":"0","OBJECT_ID":"2022-119AU","SEMIMAJOR_AXIS":"6917.893","ELEMENT_SET_NO":"999","CENTER_NAME":"EARTH","TLE_LINE2":"2 53928  53.2169 215.3921 0001274  78.0778 282.0356 15.08835905 37560","COUNTRY_CODE":"US","BSTAR":"0.00000403660000","PERIOD":"95.438","CLASSIFICATION_TYPE":"U","OBJECT_TYPE":"PAYLOAD","APOAPSIS":"540.639","MEAN_MOTION_DDOT":"0.0000000000000","EPOCH":"2023-05-21T22:09:37.471104","RCS_SIZE":"LARGE","OBJECT_NAME":"STARLINK-5009","LAUNCH_DATE":"2022-09-24"},{"FILE":"3914061","DECAY_DATE":null,"MEAN_MOTION_DOT":"0.00000699","ARG_OF_PERICENTER":"62.2634","TIME_SYSTEM":"UTC","GP_ID":"232284060","NORAD_CAT_ID":"53929","PERIAPSIS":"538.964","INCLINATION":"53.2163","ECCENTRICITY":"0.00011080","RA_OF_ASC_NODE":"227.0638","SITE":"AFETR","REF_FRAME":"TEME","REV_AT_EPOCH":"3736","MEAN_MOTION":"15.08845011","TLE_LINE1":"1 53929U 22119AV  23141.51024060  .00000699  00000-0  61977-4 0  9990","MEAN_ELEMENT_THEORY":"SGP4","MEAN_ANOMALY":"297.8470","ELEMENT_SET_NO":"999","CENTER_NAME":"EARTH","EPHEMERIS_TYPE":"0","SEMIMAJOR_AXIS":"6917.865","OBJECT_ID":"2022-119AV","COUNTRY_CODE":"US","TLE_LINE2":"2 53929  53.2163 227.0638 0001108  62.2634 297.8470 15.08845011 37360","BSTAR":"0.00006197700000","CLASSIFICATION_TYPE":"U","PERIOD":"95.437","MEAN_MOTION_DDOT":"0.0000000000000","APOAPSIS":"540.497","OBJECT_TYPE":"PAYLOAD","LAUNCH_DATE":"2022-09-24","RCS_SIZE":"LARGE","EPOCH":"2023-05-21T12:14:44.787840","OBJECT_NAME":"STARLINK-5018"},{"RA_OF_ASC_NODE":"215.3055","SITE":"AFETR","ECCENTRICITY":"0.00006440","PERIAPSIS":"539.320","INCLINATION":"53.2166","MEAN_ANOMALY":"271.5829","MEAN_ELEMENT_THEORY":"SGP4","MEAN_MOTION":"15.08833438","TLE_LINE1":"1 53930U 22119AW  23141.90860833 -.00000393  00000-0 -65950-5 0  9990","REV_AT_EPOCH":"3756","REF_FRAME":"TEME","MEAN_MOTION_DOT":"-0.00000393","DECAY_DATE":null,"FILE":"3914061","NORAD_CAT_ID":"53930","GP_ID":"232284310","TIME_SYSTEM":"UTC","ARG_OF_PERICENTER":"88.5237","APOAPSIS":"540.211","MEAN_MOTION_DDOT":"0.0000000000000","OBJECT_TYPE":"PAYLOAD","CLASSIFICATION_TYPE":"U","PERIOD":"95.438","OBJECT_NAME":"STARLINK-5010","RCS_SIZE":"LARGE","EPOCH":"2023-05-21T21:48:23.759712","LAUNCH_DATE":"2022-09-24","SEMIMAJOR_AXIS":"6917.900","OBJECT_ID":"2022-119AW","EPHEMERIS_TYPE":"0","CENTER_NAME":"EARTH","ELEMENT_SET_NO":"999","BSTAR":"-0.00000659500000","TLE_LINE2":"2 53930  53.2166 215.3055 0000644  88.5237 271.5829 15.08833438 37561","COUNTRY_CODE":"US"}];
